<?xml version="1.0" encoding="UTF-8"?>
<gpx version="1.1" creator="SpacerZHistoria" xmlns="http://www.topografix.com/GPX/1/1">
<trk><name>Krakow: Barbakan - Wawel</name><trkseg>
<trkpt lat="50.065530" lon="19.941700"></trkpt>
<trkpt lat="50.065460" lon="19.941672"></trkpt>
<trkpt lat="50.065390" lon="19.941644"></trkpt>
<trkpt lat="50.065320" lon="19.941617"></trkpt>
<trkpt lat="50.065250" lon="19.941589"></trkpt>
<trkpt lat="50.065180" lon="19.941561"></trkpt>
<trkpt lat="50.065110" lon="19.941533"></trkpt>
<trkpt lat="50.065040" lon="19.941506"></trkpt>
<trkpt lat="50.064970" lon="19.941478"></trkpt>
<trkpt lat="50.064900" lon="19.941450"></trkpt>
<trkpt lat="50.064840" lon="19.941388"></trkpt>
<trkpt lat="50.064780" lon="19.941326"></trkpt>
<trkpt lat="50.064720" lon="19.941264"></trkpt>
<trkpt lat="50.064660" lon="19.941202"></trkpt>
<trkpt lat="50.064600" lon="19.941140"></trkpt>
<trkpt lat="50.064540" lon="19.941078"></trkpt>
<trkpt lat="50.064480" lon="19.941016"></trkpt>
<trkpt lat="50.064420" lon="19.940954"></trkpt>
<trkpt lat="50.064360" lon="19.940892"></trkpt>
<trkpt lat="50.064300" lon="19.940830"></trkpt>
<trkpt lat="50.064240" lon="19.940768"></trkpt>
<trkpt lat="50.064180" lon="19.940706"></trkpt>
<trkpt lat="50.064120" lon="19.940644"></trkpt>
<trkpt lat="50.064060" lon="19.940582"></trkpt>
<trkpt lat="50.064000" lon="19.940520"></trkpt>
<trkpt lat="50.063940" lon="19.940458"></trkpt>
<trkpt lat="50.063880" lon="19.940396"></trkpt>
<trkpt lat="50.063820" lon="19.940334"></trkpt>
<trkpt lat="50.063760" lon="19.940272"></trkpt>
<trkpt lat="50.063700" lon="19.940210"></trkpt>
<trkpt lat="50.063640" lon="19.940148"></trkpt>
<trkpt lat="50.063580" lon="19.940086"></trkpt>
<trkpt lat="50.063520" lon="19.940024"></trkpt>
<trkpt lat="50.063460" lon="19.939962"></trkpt>
<trkpt lat="50.063400" lon="19.939900"></trkpt>
<trkpt lat="50.063329" lon="19.939867"></trkpt>
<trkpt lat="50.063257" lon="19.939833"></trkpt>
<trkpt lat="50.063186" lon="19.939800"></trkpt>
<trkpt lat="50.063114" lon="19.939767"></trkpt>
<trkpt lat="50.063043" lon="19.939733"></trkpt>
<trkpt lat="50.062971" lon="19.939700"></trkpt>
<trkpt lat="50.062900" lon="19.939667"></trkpt>
<trkpt lat="50.062829" lon="19.939633"></trkpt>
<trkpt lat="50.062757" lon="19.939600"></trkpt>
<trkpt lat="50.062686" lon="19.939567"></trkpt>
<trkpt lat="50.062614" lon="19.939533"></trkpt>
<trkpt lat="50.062543" lon="19.939500"></trkpt>
<trkpt lat="50.062471" lon="19.939467"></trkpt>
<trkpt lat="50.062400" lon="19.939433"></trkpt>
<trkpt lat="50.062329" lon="19.939400"></trkpt>
<trkpt lat="50.062257" lon="19.939367"></trkpt>
<trkpt lat="50.062186" lon="19.939333"></trkpt>
<trkpt lat="50.062114" lon="19.939300"></trkpt>
<trkpt lat="50.062043" lon="19.939267"></trkpt>
<trkpt lat="50.061971" lon="19.939233"></trkpt>
<trkpt lat="50.061900" lon="19.939200"></trkpt>
<trkpt lat="50.061879" lon="19.939088"></trkpt>
<trkpt lat="50.061859" lon="19.938976"></trkpt>
<trkpt lat="50.061838" lon="19.938865"></trkpt>
<trkpt lat="50.061818" lon="19.938753"></trkpt>
<trkpt lat="50.061797" lon="19.938641"></trkpt>
<trkpt lat="50.061776" lon="19.938529"></trkpt>
<trkpt lat="50.061756" lon="19.938418"></trkpt>
<trkpt lat="50.061735" lon="19.938306"></trkpt>
<trkpt lat="50.061715" lon="19.938194"></trkpt>
<trkpt lat="50.061694" lon="19.938082"></trkpt>
<trkpt lat="50.061674" lon="19.937971"></trkpt>
<trkpt lat="50.061653" lon="19.937859"></trkpt>
<trkpt lat="50.061632" lon="19.937747"></trkpt>
<trkpt lat="50.061612" lon="19.937635"></trkpt>
<trkpt lat="50.061591" lon="19.937524"></trkpt>
<trkpt lat="50.061571" lon="19.937412"></trkpt>
<trkpt lat="50.061550" lon="19.937300"></trkpt>
<trkpt lat="50.061480" lon="19.937323"></trkpt>
<trkpt lat="50.061409" lon="19.937345"></trkpt>
<trkpt lat="50.061339" lon="19.937368"></trkpt>
<trkpt lat="50.061268" lon="19.937391"></trkpt>
<trkpt lat="50.061198" lon="19.937414"></trkpt>
<trkpt lat="50.061127" lon="19.937436"></trkpt>
<trkpt lat="50.061057" lon="19.937459"></trkpt>
<trkpt lat="50.060986" lon="19.937482"></trkpt>
<trkpt lat="50.060916" lon="19.937505"></trkpt>
<trkpt lat="50.060845" lon="19.937527"></trkpt>
<trkpt lat="50.060775" lon="19.937550"></trkpt>
<trkpt lat="50.060705" lon="19.937573"></trkpt>
<trkpt lat="50.060634" lon="19.937595"></trkpt>
<trkpt lat="50.060564" lon="19.937618"></trkpt>
<trkpt lat="50.060493" lon="19.937641"></trkpt>
<trkpt lat="50.060423" lon="19.937664"></trkpt>
<trkpt lat="50.060352" lon="19.937686"></trkpt>
<trkpt lat="50.060282" lon="19.937709"></trkpt>
<trkpt lat="50.060211" lon="19.937732"></trkpt>
<trkpt lat="50.060141" lon="19.937755"></trkpt>
<trkpt lat="50.060070" lon="19.937777"></trkpt>
<trkpt lat="50.060000" lon="19.937800"></trkpt>
<trkpt lat="50.059928" lon="19.937814"></trkpt>
<trkpt lat="50.059855" lon="19.937828"></trkpt>
<trkpt lat="50.059783" lon="19.937841"></trkpt>
<trkpt lat="50.059710" lon="19.937855"></trkpt>
<trkpt lat="50.059638" lon="19.937869"></trkpt>
<trkpt lat="50.059566" lon="19.937883"></trkpt>
<trkpt lat="50.059493" lon="19.937897"></trkpt>
<trkpt lat="50.059421" lon="19.937910"></trkpt>
<trkpt lat="50.059348" lon="19.937924"></trkpt>
<trkpt lat="50.059276" lon="19.937938"></trkpt>
<trkpt lat="50.059203" lon="19.937952"></trkpt>
<trkpt lat="50.059131" lon="19.937966"></trkpt>
<trkpt lat="50.059059" lon="19.937979"></trkpt>
<trkpt lat="50.058986" lon="19.937993"></trkpt>
<trkpt lat="50.058914" lon="19.938007"></trkpt>
<trkpt lat="50.058841" lon="19.938021"></trkpt>
<trkpt lat="50.058769" lon="19.938034"></trkpt>
<trkpt lat="50.058697" lon="19.938048"></trkpt>
<trkpt lat="50.058624" lon="19.938062"></trkpt>
<trkpt lat="50.058552" lon="19.938076"></trkpt>
<trkpt lat="50.058479" lon="19.938090"></trkpt>
<trkpt lat="50.058407" lon="19.938103"></trkpt>
<trkpt lat="50.058334" lon="19.938117"></trkpt>
<trkpt lat="50.058262" lon="19.938131"></trkpt>
<trkpt lat="50.058190" lon="19.938145"></trkpt>
<trkpt lat="50.058117" lon="19.938159"></trkpt>
<trkpt lat="50.058045" lon="19.938172"></trkpt>
<trkpt lat="50.057972" lon="19.938186"></trkpt>
<trkpt lat="50.057900" lon="19.938200"></trkpt>
<trkpt lat="50.057826" lon="19.938226"></trkpt>
<trkpt lat="50.057753" lon="19.938253"></trkpt>
<trkpt lat="50.057679" lon="19.938279"></trkpt>
<trkpt lat="50.057605" lon="19.938305"></trkpt>
<trkpt lat="50.057532" lon="19.938332"></trkpt>
<trkpt lat="50.057458" lon="19.938358"></trkpt>
<trkpt lat="50.057384" lon="19.938384"></trkpt>
<trkpt lat="50.057311" lon="19.938411"></trkpt>
<trkpt lat="50.057237" lon="19.938437"></trkpt>
<trkpt lat="50.057163" lon="19.938463"></trkpt>
<trkpt lat="50.057089" lon="19.938489"></trkpt>
<trkpt lat="50.057016" lon="19.938516"></trkpt>
<trkpt lat="50.056942" lon="19.938542"></trkpt>
<trkpt lat="50.056868" lon="19.938568"></trkpt>
<trkpt lat="50.056795" lon="19.938595"></trkpt>
<trkpt lat="50.056721" lon="19.938621"></trkpt>
<trkpt lat="50.056647" lon="19.938647"></trkpt>
<trkpt lat="50.056574" lon="19.938674"></trkpt>
<trkpt lat="50.056500" lon="19.938700"></trkpt>
<trkpt lat="50.056451" lon="19.938616"></trkpt>
<trkpt lat="50.056403" lon="19.938532"></trkpt>
<trkpt lat="50.056354" lon="19.938449"></trkpt>
<trkpt lat="50.056305" lon="19.938365"></trkpt>
<trkpt lat="50.056257" lon="19.938281"></trkpt>
<trkpt lat="50.056208" lon="19.938197"></trkpt>
<trkpt lat="50.056159" lon="19.938114"></trkpt>
<trkpt lat="50.056111" lon="19.938030"></trkpt>
<trkpt lat="50.056062" lon="19.937946"></trkpt>
<trkpt lat="50.056014" lon="19.937862"></trkpt>
<trkpt lat="50.055965" lon="19.937778"></trkpt>
<trkpt lat="50.055916" lon="19.937695"></trkpt>
<trkpt lat="50.055868" lon="19.937611"></trkpt>
<trkpt lat="50.055819" lon="19.937527"></trkpt>
<trkpt lat="50.055770" lon="19.937443"></trkpt>
<trkpt lat="50.055722" lon="19.937359"></trkpt>
<trkpt lat="50.055673" lon="19.937276"></trkpt>
<trkpt lat="50.055624" lon="19.937192"></trkpt>
<trkpt lat="50.055576" lon="19.937108"></trkpt>
<trkpt lat="50.055527" lon="19.937024"></trkpt>
<trkpt lat="50.055478" lon="19.936941"></trkpt>
<trkpt lat="50.055430" lon="19.936857"></trkpt>
<trkpt lat="50.055381" lon="19.936773"></trkpt>
<trkpt lat="50.055332" lon="19.936689"></trkpt>
<trkpt lat="50.055284" lon="19.936605"></trkpt>
<trkpt lat="50.055235" lon="19.936522"></trkpt>
<trkpt lat="50.055186" lon="19.936438"></trkpt>
<trkpt lat="50.055138" lon="19.936354"></trkpt>
<trkpt lat="50.055089" lon="19.936270"></trkpt>
<trkpt lat="50.055041" lon="19.936186"></trkpt>
<trkpt lat="50.054992" lon="19.936103"></trkpt>
<trkpt lat="50.054943" lon="19.936019"></trkpt>
<trkpt lat="50.054895" lon="19.935935"></trkpt>
<trkpt lat="50.054846" lon="19.935851"></trkpt>
<trkpt lat="50.054797" lon="19.935768"></trkpt>
<trkpt lat="50.054749" lon="19.935684"></trkpt>
<trkpt lat="50.054700" lon="19.935600"></trkpt>
</trkseg></trk></gpx>
